SL-3 R/B                
1 13403U 82079B   26046.54921283  .00007130  00000+0  28702-3 0  9991
2 13403  81.1441 219.2133 0024225 240.4218 119.4601 15.24457422374326
SL-14 R/B               
1 13553U 82092B   26046.43367752  .00000641  00000+0  69155-4 0  9993
2 13553  82.5709 162.2098 0020760  19.3373  49.3646 14.86642413325628
SL-3 R/B                
1 13819U 83010B   26046.36534504  .00019162  00000+0  39560-3 0  9996
2 13819  81.1024  29.5986 0018407 121.3029 239.0021 15.45533284354499
SL-3 R/B                
1 14208U 83075B   26046.50276847  .00014310  00000+0  38424-3 0  9997
2 14208  97.6127  50.2525 0020270 313.2441  46.7111 15.37842150326745
COSMOS 1536             
1 14699U 84013A   26046.25963546  .00006544  00000+0  27206-3 0  9991
2 14699  82.5468 130.1380 0014274   7.6957 352.4496 15.23518302269204
SL-14 R/B               
1 14820U 84027B   26046.60630485  .00000466  00000+0  50424-4 0  9990
2 14820  82.5389 265.7298 0019173  49.8291 310.4600 14.85953954244350
SL-8 R/B                
1 15483U 85006B   26046.20486028  .00000193  00000+0  72737-4 0  9990
2 15483  74.0462 302.5235 0019265 224.8837 305.8950 14.37771867150796
SL-12 R/B(2)            
1 15772U 85042D   26046.54151910  .00000023  00000+0  31979-4 0  9992
2 15772  71.1084 134.5223 0034483 163.8182 289.5510 14.21976204111241
SL-14 R/B               
1 15945U 85069B   26046.46312980  .00000655  00000+0  71376-4 0  9996
2 15945  82.5244  45.8362 0017122 266.1339  93.7920 14.86406646169531
SL-16 R/B               
1 16182U 85097B   26046.53310875 -.00000185  00000+0 -68845-4 0  9997
2 16182  71.0024 187.1956 0009707 285.4394 142.6655 14.16594724 84092
SL-14 R/B               
1 16496U 86006B   26046.10952864  .00000622  00000+0  63509-4 0  9995
2 16496  82.5256 280.9920 0076396 348.7636  11.1870 14.86784284145857
COSMOS 1743             
1 16719U 86034A   26046.54352442  .00038249  00000+0  52950-3 0  9991
2 16719  82.5315  97.0446 0004525  31.9529 328.2000 15.56917366176801
